[{"OBJECT_NAME":"STARLINK-30133","OBJECT_ID":"2023-079Q","EPOCH":"2026-03-09T22:00:01.999584","MEAN_MOTION":15.21613219,"ECCENTRICITY":0.00012374,"INCLINATION":43.0015,"RA_OF_ASC_NODE":104.9884,"ARG_OF_PERICENTER":256.9041,"MEAN_ANOMALY":41.2768,"EPHEMERIS_TYPE":0,"CLASSIFICATION_TYPE":"U","NORAD_CAT_ID":56837,"ELEMENT_SET_NO":999,"REV_AT_EPOCH":567,"BSTAR":0.036862138,"MEAN_MOTION_DOT":0.00916731,"MEAN_MOTION_DDOT":0},{"OBJECT_NAME":"OBJECT AA","OBJECT_ID":"2025-313AA","EPOCH":"2026-03-09T22:17:16.257696","MEAN_MOTION":15.21952623,"ECCENTRICITY":0.0014221,"INCLINATION":97.4008,"RA_OF_ASC_NODE":145.2054,"ARG_OF_PERICENTER":358.5401,"MEAN_ANOMALY":1.5791,"EPHEMERIS_TYPE":0,"CLASSIFICATION_TYPE":"U","NORAD_CAT_ID":67272,"ELEMENT_SET_NO":999,"REV_AT_EPOCH":1085,"BSTAR":0.00056563346,"MEAN_MOTION_DOT":0.00012874,"MEAN_MOTION_DDOT":0}]
